{"type":"FeatureCollection","meta":{"generatedAt":"2026-08-16T08:42:14.407Z","source":"VWorld 주요상권","layer":"LT_C_DGMAINBIZ","sourceRegionName":"광주광역시 동구","zoneCount":2,"tileCount":81},"features":[{"type":"Feature","id":"LT_C_DGMAINBIZ.9735","properties":{"no":"9735","name":"대인시장","fullName":"대인시장","sido":"광주광역시","sigg":"동구","areaSqm":83838},"geometry":{"type":"MultiPolygon","coordinates":[[[[126.913064556636,35.15692569941177],[126.91461313407557,35.15591277085732],[126.91436096968276,35.15566021210456],[126.9143171022218,35.15562863349198],[126.91453674621812,35.155493584627315],[126.91538244582469,35.15489928059178],[126.915771743628,35.15520601426178],[126.91613412918701,35.15500345963143],[126.91636460978054,35.15499911214626],[126.91682029208505,35.15478535281855],[126.9173198856426,35.15455810133841],[126.91747637932846,35.154459058411696],[126.91776470820989,35.15422490080527],[126.91829196729839,35.15376331040283],[126.91871753751556,35.15346840115064],[126.9189975813384,35.15328155642669],[126.9189976327055,35.15322972824152],[126.91842741942828,35.15275162469482],[126.91806829245306,35.15245618684506],[126.91802166351732,35.152442634898975],[126.9179503483052,35.152422306017236],[126.9178735276655,35.15242000057113],[126.91780492445818,35.15243122105788],[126.9176813932462,35.152496485827506],[126.91709113225453,35.15286113433881],[126.9167177470461,35.15309973876545],[126.91619335648146,35.15343513390956],[126.91593803393775,35.15358818828655],[126.91531754594766,35.15398210131246],[126.91504024677178,35.15415767242401],[126.91443347358522,35.1545470836948],[126.91373610299199,35.154981495430874],[126.9128602522482,35.15553520507879],[126.91288445382762,35.15599716944],[126.91291679345542,35.156547022192036],[126.913064556636,35.15692569941177]]]]}},{"type":"Feature","id":"LT_C_DGMAINBIZ.9740","properties":{"no":"9740","name":"남광주시장","fullName":"남광주시장","sido":"광주광역시","sigg":"동구","areaSqm":96284},"geometry":{"type":"MultiPolygon","coordinates":[[[[126.9179614728211,35.14133782318716],[126.91800251389823,35.141446014416374],[126.91830141950922,35.14156113996722],[126.91913507618705,35.14187492245137],[126.92009487748224,35.1422451175569],[126.92034991751858,35.142337675061974],[126.9204514472911,35.14231070089392],[126.92089090212862,35.141772424765335],[126.92123425319247,35.14131971396765],[126.92182476348262,35.140587739564886],[126.92196208869046,35.14041882265128],[126.92216258140185,35.14017333037039],[126.92242351860861,35.139828726596356],[126.92224284748434,35.13942525113315],[126.9217960055082,35.13910497992976],[126.9212477721444,35.13867647771532],[126.92061454908786,35.13820284922056],[126.92054866854478,35.13824787417607],[126.92030153679924,35.13849784001443],[126.91981266241547,35.13909241676984],[126.91948033687336,35.13949330269623],[126.91909856705922,35.139957250046976],[126.91856299908846,35.140592351724536],[126.9179614728211,35.14133782318716]]]]}}]}
