{
  "type": "FeatureCollection",
  "meta": {
    "source": "수동 등록·보정 주요상권",
    "sourceRegionName": "광주광역시 동구",
    "zoneCount": 9
  },
  "features": [
    {
      "type": "Feature",
      "id": "manual.sansu-market",
      "properties": {
        "no": "manual-sansu-market",
        "name": "산수시장",
        "fullName": "산수시장",
        "sido": "광주광역시",
        "sigg": "동구",
        "address": "광주광역시 동구 산수동 558-57",
        "center": [126.930954807232, 35.1537139906824],
        "areaSqm": 37997,
        "source": "manual"
      },
      "geometry": {
        "type": "Polygon",
        "coordinates": [
          [
            [126.9272995996773, 35.15373979480038],
            [126.92747286597586, 35.15327569805174],
            [126.92947010393814, 35.15348418999605],
            [126.92960785623355, 35.15282627698902],
            [126.93072206921596, 35.15250242939493],
            [126.93091375338675, 35.152944205487806],
            [126.93123138096735, 35.15370603572888],
            [126.93161469085817, 35.154675214987776],
            [126.93044072191441, 35.15425541418846],
            [126.92925015055077, 35.15401135756022],
            [126.9272995996773, 35.15373979480038]
          ]
        ]
      }
    },
    {
      "type": "Feature",
      "id": "manual.art-street",
      "properties": {
        "no": "manual-art-street",
        "name": "예술의 거리",
        "fullName": "예술의 거리",
        "sido": "광주광역시",
        "sigg": "동구",
        "center": [126.9189161085083, 35.14964229752389],
        "areaSqm": 42981,
        "source": "manual"
      },
      "geometry": {
        "type": "Polygon",
        "coordinates": [
          [
            [126.91706517842916, 35.15137165740439],
            [126.91618793000137, 35.15067249927765],
            [126.91733015412575, 35.14980347081831],
            [126.91864260707804, 35.148781314496446],
            [126.91928687477873, 35.14925495987252],
            [126.92001882339231, 35.149852596817624],
            [126.91871740314755, 35.15081618682114],
            [126.91816359775846, 35.15041020172167],
            [126.91705418328887, 35.15139193049173],
            [126.91706517842916, 35.15137165740439]
          ]
        ]
      }
    },
    {
      "type": "Feature",
      "id": "manual.electronics-street",
      "properties": {
        "no": "manual-electronics-street",
        "name": "전자의 거리",
        "fullName": "전자의 거리",
        "sido": "광주광역시",
        "sigg": "동구",
        "center": [126.91363895181567, 35.15341760540318],
        "areaSqm": 21978,
        "source": "manual"
      },
      "geometry": {
        "type": "Polygon",
        "coordinates": [
          [
            [126.91211822025771, 35.15408351850133],
            [126.91160288151515, 35.153636970326396],
            [126.91335449962097, 35.15257463040958],
            [126.9143632435801, 35.15346318749819],
            [126.91373147674818, 35.15413875949344],
            [126.91296372602334, 35.15367400991937],
            [126.91214017979168, 35.154074520825326],
            [126.91211822025771, 35.15408351850133]
          ]
        ]
      }
    },
    {
      "type": "Feature",
      "id": "manual.daein-market",
      "properties": {
        "no": "manual-daein-market",
        "name": "대인시장",
        "fullName": "대인시장",
        "sido": "광주광역시",
        "sigg": "동구",
        "center": [126.91680470501554, 35.153897541407304],
        "areaSqm": 78178,
        "source": "manual",
        "replacesVworldNo": "9735"
      },
      "geometry": {
        "type": "Polygon",
        "coordinates": [
          [
            [126.91730209735002, 35.155840312902434],
            [126.91638100941559, 35.155032963518984],
            [126.91526256361689, 35.15405871754036],
            [126.91636626251199, 35.153356423404425],
            [126.91792567440471, 35.15237500692741],
            [126.91901674552354, 35.15329512868721],
            [126.9197953472745, 35.153917585186264],
            [126.91857072969663, 35.15483615573185],
            [126.91731306794938, 35.15584482718961],
            [126.91730209735002, 35.155840312902434]
          ]
        ]
      }
    },
    {
      "type": "Feature",
      "id": "manual.namgwangju-market",
      "properties": {
        "no": "manual-namgwangju-market",
        "name": "남광주시장",
        "fullName": "남광주시장",
        "sido": "광주광역시",
        "sigg": "동구",
        "center": [126.92126911677772, 35.13927142984483],
        "areaSqm": 38694,
        "source": "manual",
        "replacesVworldNo": "9740"
      },
      "geometry": {
        "type": "Polygon",
        "coordinates": [
          [
            [126.9216682474183, 35.140713868231146],
            [126.92069762809625, 35.14019495364516],
            [126.91941982623518, 35.139626252451144],
            [126.92004050931575, 35.138901066816274],
            [126.92065016486063, 35.13822093881789],
            [126.92160414563253, 35.13890208842717],
            [126.92224004164508, 35.13946134284935],
            [126.92243173501511, 35.139812997034376],
            [126.92192636555664, 35.14045263974841],
            [126.92170116680788, 35.14071388950544],
            [126.9216682474183, 35.140713868231146]
          ]
        ]
      }
    },
    {
      "type": "Feature",
      "id": "manual.printing-street",
      "properties": {
        "no": "manual-printing-street",
        "name": "인쇄의 거리",
        "fullName": "인쇄의 거리",
        "sido": "광주광역시",
        "sigg": "동구",
        "center": [126.91790655694692, 35.14409148564109],
        "areaSqm": 120113,
        "source": "manual"
      },
      "geometry": {
        "type": "Polygon",
        "coordinates": [
          [
            [126.91900233009731, 35.14569213984641],
            [126.91740602509914, 35.14531249048993],
            [126.9167370121664, 35.144933460798576],
            [126.91578840963447, 35.14432889301046],
            [126.91526752265587, 35.143981505662744],
            [126.91614067932838, 35.143242996420426],
            [126.91697540885875, 35.142508961273336],
            [126.91781581841258, 35.141567610855624],
            [126.91909372858667, 35.14204619266532],
            [126.92038809185928, 35.14254730583029],
            [126.92002509761286, 35.143439415069956],
            [126.91944229007557, 35.14466938777375],
            [126.91898587833359, 35.14568311523374],
            [126.91900233009731, 35.14569213984641]
          ]
        ]
      }
    },
    {
      "type": "Feature",
      "id": "manual.wedding-street",
      "properties": {
        "no": "manual-wedding-street",
        "name": "웨딩의 거리",
        "fullName": "웨딩의 거리",
        "sido": "광주광역시",
        "sigg": "동구",
        "center": [126.91539780867934, 35.14533138568136],
        "areaSqm": 30670,
        "source": "manual"
      },
      "geometry": {
        "type": "Polygon",
        "coordinates": [
          [
            [126.91608258078188, 35.14639096150517],
            [126.91560542592349, 35.14618782381655],
            [126.91500216336097, 35.14589896651903],
            [126.91447573570507, 35.14559664003908],
            [126.91371888237944, 35.145276120179595],
            [126.91457016197027, 35.14449704558057],
            [126.91538741798024, 35.14476802746647],
            [126.91619365026955, 35.145093077901144],
            [126.91700540330979, 35.14539108589519],
            [126.91650004894053, 35.145940569206736],
            [126.91608258078188, 35.14639096150517]
          ]
        ]
      }
    },
    {
      "type": "Feature",
      "id": "manual.honsu-street",
      "properties": {
        "no": "manual-honsu-street",
        "name": "혼수의 거리",
        "fullName": "혼수의 거리",
        "sido": "광주광역시",
        "sigg": "동구",
        "center": [126.91251131075357, 35.15083214530407],
        "areaSqm": 27782,
        "source": "manual"
      },
      "geometry": {
        "type": "Polygon",
        "coordinates": [
          [
            [126.910824957145, 35.152453364878525],
            [126.91030962090286, 35.152020331504445],
            [126.911039964534, 35.151534135252774],
            [126.91195696331384, 35.150957934262344],
            [126.91305515182758, 35.15026467952081],
            [126.91424680199142, 35.149382195130514],
            [126.91479503738721, 35.149842275914736],
            [126.91355965534153, 35.15056699631872],
            [126.91222534012326, 35.15142232967956],
            [126.91140707559428, 35.15203015250213],
            [126.910824957145, 35.152453364878525]
          ]
        ]
      }
    },
    {
      "type": "Feature",
      "id": "manual.mudeungsan-boribap-street",
      "properties": {
        "no": "manual-mudeungsan-boribap-street",
        "name": "무등산 보리밥거리",
        "fullName": "무등산 보리밥거리",
        "sido": "광주광역시",
        "sigg": "동구",
        "center": [126.9425714556449, 35.14940569033853],
        "areaSqm": 70661,
        "source": "manual"
      },
      "geometry": {
        "type": "Polygon",
        "coordinates": [
          [
            [126.94318528977541, 35.15045155846071],
            [126.94230808513795, 35.14938753800688],
            [126.94244086839697, 35.14783725991767],
            [126.94609475930335, 35.14856904311213],
            [126.94564378060207, 35.15012819633598],
            [126.94429377598742, 35.15035292344509],
            [126.94311960620796, 35.15021717380242],
            [126.94318528977541, 35.15045155846071]
          ]
        ]
      }
    }
  ]
}
